[{"OBJECT_NAME":"HEAD-3A","OBJECT_ID":"2023-121A","EPOCH":"2026-03-09T23:13:19.514208","MEAN_MOTION":14.60504198,"ECCENTRICITY":0.00053162,"INCLINATION":45.0013,"RA_OF_ASC_NODE":79.5453,"ARG_OF_PERICENTER":132.961,"MEAN_ANOMALY":227.1693,"EPHEMERIS_TYPE":0,"CLASSIFICATION_TYPE":"U","NORAD_CAT_ID":57626,"ELEMENT_SET_NO":999,"REV_AT_EPOCH":13707,"BSTAR":0.00022333117,"MEAN_MOTION_DOT":9.35e-6,"MEAN_MOTION_DDOT":0},{"OBJECT_NAME":"CZ-4B DEB","OBJECT_ID":"1999-057MP","EPOCH":"2026-03-09T18:42:28.186560","MEAN_MOTION":14.68009147,"ECCENTRICITY":0.00269082,"INCLINATION":98.4721,"RA_OF_ASC_NODE":102.8309,"ARG_OF_PERICENTER":37.8833,"MEAN_ANOMALY":19.5856,"EPHEMERIS_TYPE":0,"CLASSIFICATION_TYPE":"U","NORAD_CAT_ID":27536,"ELEMENT_SET_NO":999,"REV_AT_EPOCH":27014,"BSTAR":0.00084118815,"MEAN_MOTION_DOT":4.797e-5,"MEAN_MOTION_DDOT":0}]
